[{"OBJECT_NAME":"GAOFEN-2","OBJECT_ID":"2014-049A","EPOCH":"2026-03-14T15:29:51.514368","MEAN_MOTION":14.80778517,"ECCENTRICITY":0.00074002,"INCLINATION":98.0215,"RA_OF_ASC_NODE":137.9079,"ARG_OF_PERICENTER":169.0513,"MEAN_ANOMALY":191.0862,"EPHEMERIS_TYPE":0,"CLASSIFICATION_TYPE":"U","NORAD_CAT_ID":40118,"ELEMENT_SET_NO":999,"REV_AT_EPOCH":62524,"BSTAR":5.2181877e-5,"MEAN_MOTION_DOT":3.49e-6,"MEAN_MOTION_DDOT":0},{"OBJECT_NAME":"BRITE-PL2 (HEWELIUSZ)","OBJECT_ID":"2014-049B","EPOCH":"2026-03-14T07:03:05.681664","MEAN_MOTION":14.94207926,"ECCENTRICITY":0.00151334,"INCLINATION":97.8979,"RA_OF_ASC_NODE":184.6506,"ARG_OF_PERICENTER":67.0924,"MEAN_ANOMALY":293.1891,"EPHEMERIS_TYPE":0,"CLASSIFICATION_TYPE":"U","NORAD_CAT_ID":40119,"ELEMENT_SET_NO":999,"REV_AT_EPOCH":62727,"BSTAR":0.00022652251,"MEAN_MOTION_DOT":2.373e-5,"MEAN_MOTION_DDOT":0},{"OBJECT_NAME":"CBERS 4","OBJECT_ID":"2014-079A","EPOCH":"2026-03-14T14:13:10.202880","MEAN_MOTION":14.35517066,"ECCENTRICITY":7.639e-5,"INCLINATION":98.3475,"RA_OF_ASC_NODE":133.4474,"ARG_OF_PERICENTER":38.7317,"MEAN_ANOMALY":321.3923,"EPHEMERIS_TYPE":0,"CLASSIFICATION_TYPE":"U","NORAD_CAT_ID":40336,"ELEMENT_SET_NO":999,"REV_AT_EPOCH":59038,"BSTAR":0.00011119016,"MEAN_MOTION_DOT":2.78e-6,"MEAN_MOTION_DDOT":0},{"OBJECT_NAME":"SMAP","OBJECT_ID":"2015-003A","EPOCH":"2026-03-14T14:01:26.004000","MEAN_MOTION":14.63346391,"ECCENTRICITY":0.0001543,"INCLINATION":98.1311,"RA_OF_ASC_NODE":82.0045,"ARG_OF_PERICENTER":109.6243,"MEAN_ANOMALY":250.5125,"EPHEMERIS_TYPE":0,"CLASSIFICATION_TYPE":"U","NORAD_CAT_ID":40376,"ELEMENT_SET_NO":999,"REV_AT_EPOCH":59378,"BSTAR":0.00013404195,"MEAN_MOTION_DOT":6.45e-6,"MEAN_MOTION_DDOT":0},{"OBJECT_NAME":"GONETS-M 11","OBJECT_ID":"2015-020A","EPOCH":"2026-03-14T14:01:31.865376","MEAN_MOTION":12.4287224,"ECCENTRICITY":0.00155477,"INCLINATION":82.481,"RA_OF_ASC_NODE":89.944,"ARG_OF_PERICENTER":204.5501,"MEAN_ANOMALY":155.484,"EPHEMERIS_TYPE":0,"CLASSIFICATION_TYPE":"U","NORAD_CAT_ID":40552,"ELEMENT_SET_NO":999,"REV_AT_EPOCH":49698,"BSTAR":-0.00092915239,"MEAN_MOTION_DOT":-1.19e-6,"MEAN_MOTION_DDOT":0},{"OBJECT_NAME":"GONETS-M 12","OBJECT_ID":"2015-020B","EPOCH":"2026-03-14T13:24:59.371200","MEAN_MOTION":12.42888015,"ECCENTRICITY":0.00148925,"INCLINATION":82.4844,"RA_OF_ASC_NODE":91.0593,"ARG_OF_PERICENTER":188.5554,"MEAN_ANOMALY":171.5274,"EPHEMERIS_TYPE":0,"CLASSIFICATION_TYPE":"U","NORAD_CAT_ID":40553,"ELEMENT_SET_NO":999,"REV_AT_EPOCH":49697,"BSTAR":-0.00067820015,"MEAN_MOTION_DOT":-8.4e-7,"MEAN_MOTION_DDOT":0},{"OBJECT_NAME":"GONETS-M 13","OBJECT_ID":"2015-020C","EPOCH":"2026-03-14T14:40:25.634784","MEAN_MOTION":12.42867052,"ECCENTRICITY":0.00138108,"INCLINATION":82.4805,"RA_OF_ASC_NODE":89.6688,"ARG_OF_PERICENTER":172.7073,"MEAN_ANOMALY":187.421,"EPHEMERIS_TYPE":0,"CLASSIFICATION_TYPE":"U","NORAD_CAT_ID":40554,"ELEMENT_SET_NO":999,"REV_AT_EPOCH":49695,"BSTAR":0.00010525665,"MEAN_MOTION_DOT":2.4e-7,"MEAN_MOTION_DDOT":0},{"OBJECT_NAME":"DMC3-FM1","OBJECT_ID":"2015-032A","EPOCH":"2026-03-14T13:52:02.277696","MEAN_MOTION":14.85620394,"ECCENTRICITY":0.00060089,"INCLINATION":97.6609,"RA_OF_ASC_NODE":302.3906,"ARG_OF_PERICENTER":19.4066,"MEAN_ANOMALY":340.7377,"EPHEMERIS_TYPE":0,"CLASSIFICATION_TYPE":"U","NORAD_CAT_ID":40715,"ELEMENT_SET_NO":999,"REV_AT_EPOCH":57586,"BSTAR":7.1176208e-5,"MEAN_MOTION_DOT":5.65e-6,"MEAN_MOTION_DDOT":0},{"OBJECT_NAME":"DMC3-FM2","OBJECT_ID":"2015-032B","EPOCH":"2026-03-14T14:24:10.671264","MEAN_MOTION":14.85627385,"ECCENTRICITY":0.00067257,"INCLINATION":97.6664,"RA_OF_ASC_NODE":303.9211,"ARG_OF_PERICENTER":23.5512,"MEAN_ANOMALY":336.601,"EPHEMERIS_TYPE":0,"CLASSIFICATION_TYPE":"U","NORAD_CAT_ID":40716,"ELEMENT_SET_NO":999,"REV_AT_EPOCH":57586,"BSTAR":0.0001493267,"MEAN_MOTION_DOT":1.242e-5,"MEAN_MOTION_DDOT":0},{"OBJECT_NAME":"DMC3-FM3","OBJECT_ID":"2015-032C","EPOCH":"2026-03-14T14:57:24.701184","MEAN_MOTION":14.85624525,"ECCENTRICITY":0.0005964,"INCLINATION":97.6719,"RA_OF_ASC_NODE":305.635,"ARG_OF_PERICENTER":24.9888,"MEAN_ANOMALY":335.1615,"EPHEMERIS_TYPE":0,"CLASSIFICATION_TYPE":"U","NORAD_CAT_ID":40717,"ELEMENT_SET_NO":999,"REV_AT_EPOCH":57587,"BSTAR":5.6256281e-5,"MEAN_MOTION_DOT":4.36e-6,"MEAN_MOTION_DDOT":0},{"OBJECT_NAME":"CARBONITE 1 (CBNT-1)","OBJECT_ID":"2015-032D","EPOCH":"2026-03-14T14:43:42.959424","MEAN_MOTION":14.83244234,"ECCENTRICITY":0.00133431,"INCLINATION":97.6471,"RA_OF_ASC_NODE":255.6721,"ARG_OF_PERICENTER":242.5437,"MEAN_ANOMALY":117.4421,"EPHEMERIS_TYPE":0,"CLASSIFICATION_TYPE":"U","NORAD_CAT_ID":40718,"ELEMENT_SET_NO":999,"REV_AT_EPOCH":57532,"BSTAR":0.00013407114,"MEAN_MOTION_DOT":1.047e-5,"MEAN_MOTION_DDOT":0},{"OBJECT_NAME":"DEORBITSAIL","OBJECT_ID":"2015-032E","EPOCH":"2026-03-14T13:33:06.141024","MEAN_MOTION":15.0239217,"ECCENTRICITY":0.00125445,"INCLINATION":97.5981,"RA_OF_ASC_NODE":292.2177,"ARG_OF_PERICENTER":194.0417,"MEAN_ANOMALY":166.0461,"EPHEMERIS_TYPE":0,"CLASSIFICATION_TYPE":"U","NORAD_CAT_ID":40719,"ELEMENT_SET_NO":999,"REV_AT_EPOCH":57703,"BSTAR":0.0010203755,"MEAN_MOTION_DOT":0.0001349,"MEAN_MOTION_DDOT":0},{"OBJECT_NAME":"2015-049G","OBJECT_ID":"2015-049G","EPOCH":"2026-03-14T14:40:59.376576","MEAN_MOTION":15.59542501,"ECCENTRICITY":0.00057672,"INCLINATION":97.4715,"RA_OF_ASC_NODE":112.4396,"ARG_OF_PERICENTER":186.2521,"MEAN_ANOMALY":173.8664,"EPHEMERIS_TYPE":0,"CLASSIFICATION_TYPE":"U","NORAD_CAT_ID":40905,"ELEMENT_SET_NO":999,"REV_AT_EPOCH":58167,"BSTAR":0.00054965919,"MEAN_MOTION_DOT":0.00043716,"MEAN_MOTION_DDOT":0},{"OBJECT_NAME":"LILACSAT-2","OBJECT_ID":"2015-049K","EPOCH":"2026-03-14T14:54:27.506880","MEAN_MOTION":15.48228564,"ECCENTRICITY":0.00060713,"INCLINATION":97.4804,"RA_OF_ASC_NODE":107.0174,"ARG_OF_PERICENTER":223.1172,"MEAN_ANOMALY":136.9603,"EPHEMERIS_TYPE":0,"CLASSIFICATION_TYPE":"U","NORAD_CAT_ID":40908,"ELEMENT_SET_NO":999,"REV_AT_EPOCH":58110,"BSTAR":0.00046433454,"MEAN_MOTION_DOT":0.00024422,"MEAN_MOTION_DDOT":0},{"OBJECT_NAME":"COSMOS 2507 (RODNIK-S 13)","OBJECT_ID":"2015-050A","EPOCH":"2026-03-14T13:41:39.470208","MEAN_MOTION":12.4292312,"ECCENTRICITY":0.00098969,"INCLINATION":82.4935,"RA_OF_ASC_NODE":138.585,"ARG_OF_PERICENTER":187.9418,"MEAN_ANOMALY":172.1506,"EPHEMERIS_TYPE":0,"CLASSIFICATION_TYPE":"U","NORAD_CAT_ID":40920,"ELEMENT_SET_NO":999,"REV_AT_EPOCH":47510,"BSTAR":-0.00040297977,"MEAN_MOTION_DOT":-4.6e-7,"MEAN_MOTION_DDOT":0},{"OBJECT_NAME":"COSMOS 2508 (RODNIK-S 14)","OBJECT_ID":"2015-050B","EPOCH":"2026-03-14T14:31:21.455616","MEAN_MOTION":12.42910164,"ECCENTRICITY":0.00134365,"INCLINATION":82.4885,"RA_OF_ASC_NODE":137.1051,"ARG_OF_PERICENTER":224.9256,"MEAN_ANOMALY":135.0737,"EPHEMERIS_TYPE":0,"CLASSIFICATION_TYPE":"U","NORAD_CAT_ID":40921,"ELEMENT_SET_NO":999,"REV_AT_EPOCH":47509,"BSTAR":-0.00038675589,"MEAN_MOTION_DOT":-4.4e-7,"MEAN_MOTION_DDOT":0}]
