GAOFEN-2                
1 40118U 14049A   26073.64573512  .00000349  00000+0  52182-4 0  9990
2 40118  98.0215 137.9079 0007400 169.0513 191.0862 14.80778517625247
BRITE-PL2 (HEWELIUSZ)   
1 40119U 14049B   26073.29381576  .00002373  00000+0  22652-3 0  9996
2 40119  97.8979 184.6506 0015133  67.0924 293.1891 14.94207926627278
CBERS 4                 
1 40336U 14079A   26073.59247920  .00000278  00000+0  11119-3 0  9995
2 40336  98.3475 133.4474 0000763  38.7317 321.3923 14.35517066590381
SMAP                    
1 40376U 15003A   26073.58432875  .00000645  00000+0  13404-3 0  9998
2 40376  98.1311  82.0045 0001543 109.6243 250.5125 14.63346391593784
GONETS-M 11             
1 40552U 15020A   26073.58439659 -.00000119  00000+0 -92915-3 0  9992
2 40552  82.4810  89.9440 0015547 204.5501 155.4840 12.42872240496989
GONETS-M 12             
1 40553U 15020B   26073.55902050 -.00000084  00000+0 -67820-3 0  9998
2 40553  82.4844  91.0593 0014892 188.5554 171.5274 12.42888015496977
GONETS-M 13             
1 40554U 15020C   26073.61140781  .00000024  00000+0  10526-3 0  9994
2 40554  82.4805  89.6688 0013810 172.7073 187.4210 12.42867052496955
DMC3-FM1                
1 40715U 15032A   26073.57780414  .00000565  00000+0  71176-4 0  9993
2 40715  97.6609 302.3906 0006008  19.4066 340.7377 14.85620394575863
DMC3-FM2                
1 40716U 15032B   26073.60012351  .00001242  00000+0  14933-3 0  9996
2 40716  97.6664 303.9211 0006725  23.5512 336.6010 14.85627385575864
DMC3-FM3                
1 40717U 15032C   26073.62320256  .00000436  00000+0  56256-4 0  9994
2 40717  97.6719 305.6350 0005964  24.9888 335.1615 14.85624525575873
CARBONITE 1 (CBNT-1)    
1 40718U 15032D   26073.61369166  .00001047  00000+0  13407-3 0  9996
2 40718  97.6471 255.6721 0013343 242.5437 117.4421 14.83244234575322
DEORBITSAIL             
1 40719U 15032E   26073.56465441  .00013490  00000+0  10204-2 0  9990
2 40719  97.5981 292.2177 0012544 194.0417 166.0461 15.02392170577030
2015-049G               
1 40905U 15049G   26073.61179834  .00043716  00000+0  54966-3 0  9997
2 40905  97.4715 112.4396 0005767 186.2521 173.8664 15.59542501581678
LILACSAT-2              
1 40908U 15049K   26073.62115170  .00024422  00000+0  46433-3 0  9997
2 40908  97.4804 107.0174 0006071 223.1172 136.9603 15.48228564581105
COSMOS 2507 (RODNIK-S *)
1 40920U 15050A   26073.57059572 -.00000046  00000+0 -40298-3 0  9991
2 40920  82.4935 138.5850 0009896 187.9418 172.1506 12.42923120475103
COSMOS 2508 (RODNIK-S *)
1 40921U 15050B   26073.60510944 -.00000044  00000+0 -38676-3 0  9996
2 40921  82.4885 137.1051 0013436 224.9256 135.0737 12.42910164475099
